{
"type": "FeatureCollection",
"name": "pmc_pcmc_boundary",
"crs": { "type": "name", "properties": { "name": "urn:ogc:def:crs:OGC:1.3:CRS84" } },
"features": [
{ "type": "Feature", "properties": { "bbox_west": 73.9384122, "bbox_south": 18.5058026, "bbox_east": 73.9391639, "bbox_north": 18.506551, "place_id": 248824078, "osm_type": "way", "osm_id": 1412163480, "lat": 18.5062071, "lon": 73.9387521, "class": "landuse", "type": "education", "place_rank": 24, "importance": 0.080037501335164379, "addresstype": "education", "name": "Pune Municipal Corporation Madhavrao Sonba Tupe School", "display_name": "Pune Municipal Corporation Madhavrao Sonba Tupe School, Pune, Pune City Subdistrict, Pune District, Maharashtra, 411001, India" }, "geometry": { "type": "Polygon", "coordinates": [ [ [ 73.9384122, 18.5064916 ], [ 73.9384767, 18.5058026 ], [ 73.9391023, 18.505977 ], [ 73.9390284, 18.5064372 ], [ 73.9391583, 18.5064568 ], [ 73.9391639, 18.506551 ], [ 73.9384122, 18.5064916 ] ] ] } },
{ "type": "Feature", "properties": { "bbox_west": 73.804232, "bbox_south": 18.6279969, "bbox_east": 73.8050361, "bbox_north": 18.6288143, "place_id": 248463174, "osm_type": "way", "osm_id": 240596976, "lat": 18.6284596, "lon": 73.804757, "class": "office", "type": "government", "place_rank": 30, "importance": 5.3884946974853399e-05, "addresstype": "office", "name": "Pimpri-Chinchwad Municipal Corporation", "display_name": "Pimpri-Chinchwad Municipal Corporation, Service Road, Ajmera, Pimpri-Chinchwad, Haveli Subdistrict, Pune District, Maharashtra, 411089, India" }, "geometry": { "type": "Polygon", "coordinates": [ [ [ 73.804232, 18.6286717 ], [ 73.8042887, 18.6286024 ], [ 73.8045352, 18.6285729 ], [ 73.8045013, 18.6283463 ], [ 73.8047231, 18.6283165 ], [ 73.804687, 18.6280754 ], [ 73.8047372, 18.6280072 ], [ 73.8048381, 18.6279969 ], [ 73.8048975, 18.6280471 ], [ 73.8049335, 18.6282872 ], [ 73.8049693, 18.6282824 ], [ 73.8050361, 18.6287286 ], [ 73.804569, 18.6287914 ], [ 73.8045664, 18.6287738 ], [ 73.8043609, 18.628798 ], [ 73.8043537, 18.6288105 ], [ 73.8043162, 18.6288143 ], [ 73.804243, 18.6287624 ], [ 73.804232, 18.6286717 ] ] ] } }
]
}
